{"type": "FeatureCollection", "features": [ {"type": "Feature", "properties": {"norad_id": 39122, "name": "EUTELSAT 117 WEST A", "group": "eutelsat", "lat": 0.03021344590212605, "lon": 79.59155003670979, "alt_km": 35797.74219226102, "timestamp": "2025-12-27T06:41:30.570097+00:00", "meta": {"OBJECT_NAME": "EUTELSAT 117 WEST A", "OBJECT_ID": "2013-012A", "EPOCH": "2025-12-26T22:45:04.214016", "MEAN_MOTION": 1.00270805, "ECCENTRICITY": 0.00028627, "INCLINATION": 0.0152, "RA_OF_ASC_NODE": 332.5334, "ARG_OF_PERICENTER": 306.8566, "MEAN_ANOMALY": 40.763, "EPHEMERIS_TYPE": 0, "CLASSIFICATION_TYPE": "U", "NORAD_CAT_ID": 39122, "ELEMENT_SET_NO": 999, "REV_AT_EPOCH": 4670, "BSTAR": 0, "MEAN_MOTION_DOT": 9e-08, "MEAN_MOTION_DDOT": 0}, "tle": {"line1": "1 39122U 13012A   25360.94796544  .00000009  00000+0  00000+0 0  9995", "line2": "2 39122   0.0152 332.5334 0002862 306.8566  40.7630  1.00270805 46702"}}, "geometry": {"type": "Point", "coordinates": [79.59155003670979, 0.03021344590212605]}}, {"type": "Feature", "properties": {"norad_id": 39163, "name": "EUTELSAT 7B", "group": "eutelsat", "lat": -0.017977202200019922, "lon": -156.67136682994715, "alt_km": 35795.550378408276, "timestamp": "2025-12-27T06:41:30.570110+00:00", "meta": {"OBJECT_NAME": "EUTELSAT 7B", "OBJECT_ID": "2013-022A", "EPOCH": "2025-12-26T08:51:38.739168", "MEAN_MOTION": 1.00271815, "ECCENTRICITY": 0.0004718, "INCLINATION": 0.0666, "RA_OF_ASC_NODE": 12.0633, "ARG_OF_PERICENTER": 310.169, "MEAN_ANOMALY": 272.7878, "EPHEMERIS_TYPE": 0, "CLASSIFICATION_TYPE": "U", "NORAD_CAT_ID": 39163, "ELEMENT_SET_NO": 999, "REV_AT_EPOCH": 4621, "BSTAR": 0, "MEAN_MOTION_DOT": 7e-07, "MEAN_MOTION_DDOT": 0}, "tle": {"line1": "1 39163U 13022A   25360.36919837  .00000070  00000+0  00000+0 0  9997", "line2": "2 39163   0.0666  12.0633 0004718 310.1690 272.7878  1.00271815 46216"}}, "geometry": {"type": "Point", "coordinates": [-156.67136682994715, -0.017977202200019922]}}, {"type": "Feature", "properties": {"norad_id": 39612, "name": "EXPRESS-AT1", "group": "eutelsat", "lat": -0.01501283862174167, "lon": -107.57922863215285, "alt_km": 35786.75526280604, "timestamp": "2025-12-27T06:41:30.570122+00:00", "meta": {"OBJECT_NAME": "EXPRESS-AT1", "OBJECT_ID": "2014-010A", "EPOCH": "2025-12-26T04:01:38.790048", "MEAN_MOTION": 1.00275867, "ECCENTRICITY": 0.0001356, "INCLINATION": 0.0174, "RA_OF_ASC_NODE": 279.8877, "ARG_OF_PERICENTER": 223.1198, "MEAN_ANOMALY": 68.3278, "EPHEMERIS_TYPE": 0, "CLASSIFICATION_TYPE": "U", "NORAD_CAT_ID": 39612, "ELEMENT_SET_NO": 999, "REV_AT_EPOCH": 4308, "BSTAR": 0, "MEAN_MOTION_DOT": 1e-06, "MEAN_MOTION_DDOT": 0}, "tle": {"line1": "1 39612U 14010A   25360.16781007  .00000100  00000+0  00000+0 0  9992", "line2": "2 39612   0.0174 279.8877 0001356 223.1198  68.3278  1.00275867 43089"}}, "geometry": {"type": "Point", "coordinates": [-107.57922863215285, -0.01501283862174167]}}, {"type": "Feature", "properties": {"norad_id": 39613, "name": "EXPRESS-AT2", "group": "eutelsat", "lat": -0.0019883759326620367, "lon": -23.741848114673697, "alt_km": 35782.73998395251, "timestamp": "2025-12-27T06:41:30.570138+00:00", "meta": {"OBJECT_NAME": "EXPRESS-AT2", "OBJECT_ID": "2014-010B", "EPOCH": "2025-12-26T22:15:35.536032", "MEAN_MOTION": 1.00270958, "ECCENTRICITY": 0.00016898, "INCLINATION": 0.017, "RA_OF_ASC_NODE": 323.2295, "ARG_OF_PERICENTER": 313.4014, "MEAN_ANOMALY": 292.7934, "EPHEMERIS_TYPE": 0, "CLASSIFICATION_TYPE": "U", "NORAD_CAT_ID": 39613, "ELEMENT_SET_NO": 999, "REV_AT_EPOCH": 4277, "BSTAR": 0, "MEAN_MOTION_DOT": -2.59e-06, "MEAN_MOTION_DDOT": 0}, "tle": {"line1": "1 39613U 14010B   25360.92749463 -.00000259  00000+0  00000+0 0  9993", "line2": "2 39613   0.0170 323.2295 0001689 313.4014 292.7934  1.00270958 42776"}}, "geometry": {"type": "Point", "coordinates": [-23.741848114673697, -0.0019883759326620367]}}, {"type": "Feature", "properties": {"norad_id": 39773, "name": "EUTELSAT 3B", "group": "eutelsat", "lat": -0.031842809912750236, "lon": -160.55635492223303, "alt_km": 35771.87890596978, "timestamp": "2025-12-27T06:41:30.570155+00:00", "meta": {"OBJECT_NAME": "EUTELSAT 3B", "OBJECT_ID": "2014-030A", "EPOCH": "2025-12-26T08:51:38.739168", "MEAN_MOTION": 1.00270297, "ECCENTRICITY": 0.0004298, "INCLINATION": 0.06, "RA_OF_ASC_NODE": 352.4178, "ARG_OF_PERICENTER": 243.3494, "MEAN_ANOMALY": 355.3551, "EPHEMERIS_TYPE": 0, "CLASSIFICATION_TYPE": "U", "NORAD_CAT_ID": 39773, "ELEMENT_SET_NO": 999, "REV_AT_EPOCH": 4233, "BSTAR": 0, "MEAN_MOTION_DOT": 4.2e-07, "MEAN_MOTION_DDOT": 0}, "tle": {"line1": "1 39773U 14030A   25360.36919837  .00000042  00000+0  00000+0 0  9993", "line2": "2 39773   0.0600 352.4178 0004298 243.3494 355.3551  1.00270297 42336"}}, "geometry": {"type": "Point", "coordinates": [-160.55635492223303, -0.031842809912750236]}}, {"type": "Feature", "properties": {"norad_id": 40425, "name": "EUTELSAT 115 WEST B", "group": "eutelsat", "lat": -0.005448502127433415, "lon": 81.48210439180829, "alt_km": 35785.26750035543, "timestamp": "2025-12-27T06:41:30.570168+00:00", "meta": {"OBJECT_NAME": "EUTELSAT 115 WEST B", "OBJECT_ID": "2015-010B", "EPOCH": "2025-12-26T05:44:38.581152", "MEAN_MOTION": 1.00273604, "ECCENTRICITY": 7.8e-06, "INCLINATION": 0.0077, "RA_OF_ASC_NODE": 147.8651, "ARG_OF_PERICENTER": 258.8043, "MEAN_ANOMALY": 19.571, "EPHEMERIS_TYPE": 0, "CLASSIFICATION_TYPE": "U", "NORAD_CAT_ID": 40425, "ELEMENT_SET_NO": 999, "REV_AT_EPOCH": 3965, "BSTAR": 0, "MEAN_MOTION_DOT": -3e-08, "MEAN_MOTION_DDOT": 0}, "tle": {"line1": "1 40425U 15010B   25360.23933543 -.00000003  00000+0  00000+0 0  9992", "line2": "2 40425   0.0077 147.8651 0000078 258.8043  19.5710  1.00273604 39657"}}, "geometry": {"type": "Point", "coordinates": [81.48210439180829, -0.005448502127433415]}}, {"type": "Feature", "properties": {"norad_id": 40875, "name": "EUTELSAT 8 WEST B", "group": "eutelsat", "lat": 0.004404784356527529, "lon": -171.670126042599, "alt_km": 35785.38166212019, "timestamp": "2025-12-27T06:41:30.570180+00:00", "meta": {"OBJECT_NAME": "EUTELSAT 8 WEST B", "OBJECT_ID": "2015-039B", "EPOCH": "2025-12-26T14:42:28.524960", "MEAN_MOTION": 1.00271395, "ECCENTRICITY": 0.0004204, "INCLINATION": 0.0651, "RA_OF_ASC_NODE": 12.1709, "ARG_OF_PERICENTER": 263.5924, "MEAN_ANOMALY": 32.208, "EPHEMERIS_TYPE": 0, "CLASSIFICATION_TYPE": "U", "NORAD_CAT_ID": 40875, "ELEMENT_SET_NO": 999, "REV_AT_EPOCH": 3792, "BSTAR": 0, "MEAN_MOTION_DOT": -4.4e-07, "MEAN_MOTION_DDOT": 0}, "tle": {"line1": "1 40875U 15039B   25360.61283015 -.00000044  00000+0  00000+0 0  9991", "line2": "2 40875   0.0651  12.1709 0004204 263.5924  32.2080  1.00271395 37923"}}, "geometry": {"type": "Point", "coordinates": [-171.670126042599, 0.004404784356527529]}}, {"type": "Feature", "properties": {"norad_id": 41310, "name": "EUTELSAT 9B", "group": "eutelsat", "lat": 0.00836816836196684, "lon": -154.6809638323415, "alt_km": 35779.813215531154, "timestamp": "2025-12-27T06:41:30.570191+00:00", "meta": {"OBJECT_NAME": "EUTELSAT 9B", "OBJECT_ID": "2016-005A", "EPOCH": "2025-12-26T08:43:38.553888", "MEAN_MOTION": 1.00269907, "ECCENTRICITY": 0.0004728, "INCLINATION": 0.0277, "RA_OF_ASC_NODE": 48.2901, "ARG_OF_PERICENTER": 227.4289, "MEAN_ANOMALY": 319.2953, "EPHEMERIS_TYPE": 0, "CLASSIFICATION_TYPE": "U", "NORAD_CAT_ID": 41310, "ELEMENT_SET_NO": 999, "REV_AT_EPOCH": 3638, "BSTAR": 0, "MEAN_MOTION_DOT": 8.3e-07, "MEAN_MOTION_DDOT": 0}, "tle": {"line1": "1 41310U 16005A   25360.36364067  .00000083  00000+0  00000+0 0  9991", "line2": "2 41310   0.0277  48.2901 0004728 227.4289 319.2953  1.00269907 36382"}}, "geometry": {"type": "Point", "coordinates": [-154.6809638323415, 0.00836816836196684]}}, {"type": "Feature", "properties": {"norad_id": 41382, "name": "EUTELSAT 65 WEST A", "group": "eutelsat", "lat": 0.04217996072345412, "lon": 131.18533388651937, "alt_km": 35794.796753992785, "timestamp": "2025-12-27T06:41:30.570204+00:00", "meta": {"OBJECT_NAME": "EUTELSAT 65 WEST A", "OBJECT_ID": "2016-014A", "EPOCH": "2025-12-26T08:16:36.677280", "MEAN_MOTION": 1.00271228, "ECCENTRICITY": 0.0002373, "INCLINATION": 0.0477, "RA_OF_ASC_NODE": 347.1965, "ARG_OF_PERICENTER": 291.4205, "MEAN_ANOMALY": 235.4476, "EPHEMERIS_TYPE": 0, "CLASSIFICATION_TYPE": "U", "NORAD_CAT_ID": 41382, "ELEMENT_SET_NO": 999, "REV_AT_EPOCH": 3580, "BSTAR": 0, "MEAN_MOTION_DOT": -2.54e-06, "MEAN_MOTION_DDOT": 0}, "tle": {"line1": "1 41382U 16014A   25360.34486895 -.00000254  00000+0  00000+0 0  9993", "line2": "2 41382   0.0477 347.1965 0002373 291.4205 235.4476  1.00271228 35801"}}, "geometry": {"type": "Point", "coordinates": [131.18533388651937, 0.04217996072345412]}}, {"type": "Feature", "properties": {"norad_id": 41589, "name": "EUTELSAT 117 WEST B", "group": "eutelsat", "lat": -0.0025728117488904574, "lon": 79.37562489760512, "alt_km": 35785.94065659592, "timestamp": "2025-12-27T06:41:30.570216+00:00", "meta": {"OBJECT_NAME": "EUTELSAT 117 WEST B", "OBJECT_ID": "2016-038B", "EPOCH": "2025-12-26T22:44:56.725728", "MEAN_MOTION": 1.00272383, "ECCENTRICITY": 1.85e-06, "INCLINATION": 0.0117, "RA_OF_ASC_NODE": 149.0089, "ARG_OF_PERICENTER": 171.2935, "MEAN_ANOMALY": 359.6124, "EPHEMERIS_TYPE": 0, "CLASSIFICATION_TYPE": "U", "NORAD_CAT_ID": 41589, "ELEMENT_SET_NO": 999, "REV_AT_EPOCH": 3493, "BSTAR": 0, "MEAN_MOTION_DOT": 1.1e-07, "MEAN_MOTION_DDOT": 0}, "tle": {"line1": "1 41589U 16038B   25360.94787877  .00000011  00000+0  00000+0 0  9998", "line2": "2 41589   0.0117 149.0089 0000018 171.2935 359.6124  1.00272383 34931"}}, "geometry": {"type": "Point", "coordinates": [79.37562489760512, -0.0025728117488904574]}}]}